*******************************************************************************
Ephemeris / WWW_USER Mon Mar 24 11:07:43 2025 Pasadena, USA      / Horizons    
*******************************************************************************
Target body name: (2018 VA2)                      {source: JPL#8}
Center body name: Earth (399)                     {source: DE441}
Center-site name: Mauna Kea
*******************************************************************************
Start time      : A.D. 2018-Aug-02 05:08:00.0000 UT      
Stop  time      : A.D. 2018-Aug-02 15:48:00.0000 UT      
Step-size       : 1 minutes
*******************************************************************************
Target pole/equ : undefined
Target radii    : undefined                                                    
Center geodetic : 204.5278, 19.8260847, 4.21024   {E-lon(deg),Lat(deg),Alt(km)}
Center cylindric: 204.5278, 6006.35451, 2151.0229 {E-lon(deg),Dxy(km),Dz(km)}
Center pole/equ : ITRF93                          {East-longitude positive}
Center radii    : 6378.137, 6378.137, 6356.752 km {Equator_a, b, pole_c}       
Target primary  : Sun
Vis. interferer : MOON (R_eq= 1737.400) km        {source: DE441}
Rel. light bend : Sun                             {source: DE441}
Rel. lght bnd GM: 1.3271E+11 km^3/s^2                                          
Small-body perts: Yes                             {source: SB441-N16}
Atmos refraction: NO (AIRLESS)
RA format       : HMS
Time format     : CAL 
Calendar mode   : Mixed Julian/Gregorian
RTS-only print  : NO       
EOP file        : eop.250321.p250617                                           
EOP coverage    : DATA-BASED 1962-JAN-20 TO 2025-MAR-21. PREDICTS-> 2025-JUN-16
Units conversion: 1 au= 149597870.700 km, c= 299792.458 km/s, 1 day= 86400.0 s 
Table cut-offs 1: Elevation (-90.0deg=NO ),Airmass (>38.000=NO), Daylight (YES)
Table cut-offs 2: Solar elongation (  0.0,180.0=NO ),Local Hour Angle( 0.0=NO )
Table cut-offs 3: RA/DEC angular rate (     0.0=NO )                           
*******************************************************************************
Initial IAU76/J2000 heliocentric ecliptic osculating elements (au, days, deg.):
  EPOCH=  2458428.5 ! 2018-Nov-06.00 (TDB)         Residual RMS= .39675        
   EC= .3242664208426159   QR= .935847567628844    TP= 2458464.9625425939      
   OM= 226.0068906557846   W=  220.7446970607937   IN= 3.947636678272312       
  Equivalent ICRF heliocentric cartesian coordinates (au, au/d):
   X= 7.314601530918681E-01  Y= 6.289465658343808E-01  Z= 2.763726037901882E-01
  VX=-1.554701504922309E-02 VY= 1.109318211007817E-02 VZ= 3.366540373951610E-03
Asteroid physical parameters (km, seconds, rotational period in hours):        
   GM= n.a.                RAD= n.a.               ROTPER= n.a.                
   H= 27.08                G= .150                 B-V= n.a.                   
                           ALBEDO= n.a.            STYP= n.a.                  
*******************************************************************************
 Date__(UT)__HR:MN     R.A._________(ICRF)_________DEC
******************************************************
$$SOE
 2018-Aug-02 13:20  m  00 06 54.814542 +10 35 55.47060
 2018-Aug-02 13:21  m  00 06 54.858182 +10 35 56.04563
 2018-Aug-02 13:22  m  00 06 54.901819 +10 35 56.62060
 2018-Aug-02 13:23  m  00 06 54.945455 +10 35 57.19553
 2018-Aug-02 13:24  m  00 06 54.989088 +10 35 57.77041
 2018-Aug-02 13:25  m  00 06 55.032719 +10 35 58.34524
 2018-Aug-02 13:26  m  00 06 55.076348 +10 35 58.92002
 2018-Aug-02 13:27  m  00 06 55.119975 +10 35 59.49475
 2018-Aug-02 13:28  m  00 06 55.163600 +10 36 00.06944
 2018-Aug-02 13:29  m  00 06 55.207223 +10 36 00.64408
 2018-Aug-02 13:30  m  00 06 55.250844 +10 36 01.21867
 2018-Aug-02 13:31  m  00 06 55.294464 +10 36 01.79321
 2018-Aug-02 13:32  m  00 06 55.338083 +10 36 02.36771
 2018-Aug-02 13:33  m  00 06 55.381699 +10 36 02.94215
 2018-Aug-02 13:34  m  00 06 55.425315 +10 36 03.51655
 2018-Aug-02 13:35  m  00 06 55.468929 +10 36 04.09090
 2018-Aug-02 13:36  m  00 06 55.512542 +10 36 04.66520
 2018-Aug-02 13:37  m  00 06 55.556153 +10 36 05.23946
 2018-Aug-02 13:38  m  00 06 55.599764 +10 36 05.81366
 2018-Aug-02 13:39  m  00 06 55.643373 +10 36 06.38782
 2018-Aug-02 13:40  m  00 06 55.686981 +10 36 06.96193
 2018-Aug-02 13:41  m  00 06 55.730589 +10 36 07.53599
 2018-Aug-02 13:42  m  00 06 55.774196 +10 36 08.11000
 2018-Aug-02 13:43  m  00 06 55.817802 +10 36 08.68397
 2018-Aug-02 13:44  m  00 06 55.861407 +10 36 09.25788
 2018-Aug-02 13:45  m  00 06 55.905011 +10 36 09.83175
 2018-Aug-02 13:46  t  00 06 55.948616 +10 36 10.40557
 2018-Aug-02 13:47  m  00 06 55.992219 +10 36 10.97934
 2018-Aug-02 13:48  m  00 06 56.035823 +10 36 11.55306
 2018-Aug-02 13:49  m  00 06 56.079426 +10 36 12.12674
 2018-Aug-02 13:50  m  00 06 56.123029 +10 36 12.70036
 2018-Aug-02 13:51  m  00 06 56.166632 +10 36 13.27394
 2018-Aug-02 13:52  m  00 06 56.210234 +10 36 13.84747
 2018-Aug-02 13:53  m  00 06 56.253837 +10 36 14.42095
 2018-Aug-02 13:54  m  00 06 56.297440 +10 36 14.99439
 2018-Aug-02 13:55  m  00 06 56.341043 +10 36 15.56777
 2018-Aug-02 13:56  m  00 06 56.384646 +10 36 16.14111
 2018-Aug-02 13:57  m  00 06 56.428250 +10 36 16.71440
 2018-Aug-02 13:58  m  00 06 56.471854 +10 36 17.28764
 2018-Aug-02 13:59  m  00 06 56.515458 +10 36 17.86083
 2018-Aug-02 14:00  m  00 06 56.559064 +10 36 18.43397
 2018-Aug-02 14:01  m  00 06 56.602669 +10 36 19.00707
 2018-Aug-02 14:02  m  00 06 56.646276 +10 36 19.58012
 2018-Aug-02 14:03  m  00 06 56.689883 +10 36 20.15312
 2018-Aug-02 14:04  m  00 06 56.733491 +10 36 20.72607
 2018-Aug-02 14:05  m  00 06 56.777100 +10 36 21.29897
 2018-Aug-02 14:06  m  00 06 56.820710 +10 36 21.87183
 2018-Aug-02 14:07  m  00 06 56.864321 +10 36 22.44463
 2018-Aug-02 14:08  m  00 06 56.907934 +10 36 23.01739
 2018-Aug-02 14:09  m  00 06 56.951547 +10 36 23.59010
 2018-Aug-02 14:10  m  00 06 56.995162 +10 36 24.16276
 2018-Aug-02 14:11  m  00 06 57.038778 +10 36 24.73538
 2018-Aug-02 14:12  m  00 06 57.082396 +10 36 25.30794
 2018-Aug-02 14:13  m  00 06 57.126015 +10 36 25.88046
 2018-Aug-02 14:14  m  00 06 57.169636 +10 36 26.45293
 2018-Aug-02 14:15  m  00 06 57.213259 +10 36 27.02535
 2018-Aug-02 14:16  m  00 06 57.256884 +10 36 27.59773
 2018-Aug-02 14:17  m  00 06 57.300510 +10 36 28.17005
 2018-Aug-02 14:18  m  00 06 57.344138 +10 36 28.74233
 2018-Aug-02 14:19  m  00 06 57.387768 +10 36 29.31456
 2018-Aug-02 14:20  m  00 06 57.431401 +10 36 29.88675
 2018-Aug-02 14:21  m  00 06 57.475035 +10 36 30.45888
 2018-Aug-02 14:22  m  00 06 57.518672 +10 36 31.03097
 2018-Aug-02 14:23  m  00 06 57.562311 +10 36 31.60301
 2018-Aug-02 14:24  m  00 06 57.605952 +10 36 32.17500
 2018-Aug-02 14:25  m  00 06 57.649596 +10 36 32.74694
 2018-Aug-02 14:26  m  00 06 57.693243 +10 36 33.31884
 2018-Aug-02 14:27  m  00 06 57.736892 +10 36 33.89069
 2018-Aug-02 14:28  m  00 06 57.780544 +10 36 34.46249
 2018-Aug-02 14:29  m  00 06 57.824198 +10 36 35.03424
 2018-Aug-02 14:30  m  00 06 57.867856 +10 36 35.60595
 2018-Aug-02 14:31  m  00 06 57.911516 +10 36 36.17760
 2018-Aug-02 14:32  m  00 06 57.955179 +10 36 36.74921
 2018-Aug-02 14:33  m  00 06 57.998845 +10 36 37.32078
 2018-Aug-02 14:34  m  00 06 58.042515 +10 36 37.89229
 2018-Aug-02 14:35  m  00 06 58.086188 +10 36 38.46376
 2018-Aug-02 14:36  m  00 06 58.129864 +10 36 39.03518
 2018-Aug-02 14:37  m  00 06 58.173543 +10 36 39.60656
 2018-Aug-02 14:38  m  00 06 58.217226 +10 36 40.17788
 2018-Aug-02 14:39 Am  00 06 58.260912 +10 36 40.74916
 2018-Aug-02 14:40 Am  00 06 58.304602 +10 36 41.32040
 2018-Aug-02 14:41 Am  00 06 58.348296 +10 36 41.89158
 2018-Aug-02 14:42 Am  00 06 58.391993 +10 36 42.46272
 2018-Aug-02 14:43 Am  00 06 58.435694 +10 36 43.03381
 2018-Aug-02 14:44 Am  00 06 58.479399 +10 36 43.60485
 2018-Aug-02 14:45 Am  00 06 58.523108 +10 36 44.17585
 2018-Aug-02 14:46 Am  00 06 58.566822 +10 36 44.74680
 2018-Aug-02 14:47 Am  00 06 58.610539 +10 36 45.31771
 2018-Aug-02 14:48 Am  00 06 58.654260 +10 36 45.88856
 2018-Aug-02 14:49 Am  00 06 58.697986 +10 36 46.45937
 2018-Aug-02 14:50 Am  00 06 58.741716 +10 36 47.03014
 2018-Aug-02 14:51 Am  00 06 58.785450 +10 36 47.60085
 2018-Aug-02 14:52 Am  00 06 58.829189 +10 36 48.17152
 2018-Aug-02 14:53 Am  00 06 58.872932 +10 36 48.74215
 2018-Aug-02 14:54 Am  00 06 58.916681 +10 36 49.31273
 2018-Aug-02 14:55 Am  00 06 58.960433 +10 36 49.88326
 2018-Aug-02 14:56 Am  00 06 59.004191 +10 36 50.45374
 2018-Aug-02 14:57 Am  00 06 59.047953 +10 36 51.02418
 2018-Aug-02 14:58 Am  00 06 59.091721 +10 36 51.59457
 2018-Aug-02 14:59 Am  00 06 59.135493 +10 36 52.16492
 2018-Aug-02 15:00 Am  00 06 59.179270 +10 36 52.73522
 2018-Aug-02 15:01 Am  00 06 59.223053 +10 36 53.30547
 2018-Aug-02 15:02 Am  00 06 59.266841 +10 36 53.87568
 2018-Aug-02 15:03 Am  00 06 59.310634 +10 36 54.44584
 2018-Aug-02 15:04 Am  00 06 59.354432 +10 36 55.01596
 2018-Aug-02 15:05 Am  00 06 59.398236 +10 36 55.58603
 2018-Aug-02 15:06 Am  00 06 59.442045 +10 36 56.15606
 2018-Aug-02 15:07 Nm  00 06 59.485860 +10 36 56.72604
 2018-Aug-02 15:08 Nm  00 06 59.529681 +10 36 57.29597
 2018-Aug-02 15:09 Nm  00 06 59.573507 +10 36 57.86586
 2018-Aug-02 15:10 Nm  00 06 59.617339 +10 36 58.43570
 2018-Aug-02 15:11 Nm  00 06 59.661177 +10 36 59.00550
 2018-Aug-02 15:12 Nm  00 06 59.705021 +10 36 59.57525
 2018-Aug-02 15:13 Nm  00 06 59.748871 +10 37 00.14496
 2018-Aug-02 15:14 Nm  00 06 59.792727 +10 37 00.71462
 2018-Aug-02 15:15 Nm  00 06 59.836589 +10 37 01.28424
 2018-Aug-02 15:16 Nm  00 06 59.880457 +10 37 01.85382
 2018-Aug-02 15:17 Nm  00 06 59.924332 +10 37 02.42334
 2018-Aug-02 15:18 Nm  00 06 59.968213 +10 37 02.99283
 2018-Aug-02 15:19 Nm  00 07 00.012101 +10 37 03.56226
 2018-Aug-02 15:20 Nm  00 07 00.055995 +10 37 04.13166
 2018-Aug-02 15:21 Nm  00 07 00.099895 +10 37 04.70101
 2018-Aug-02 15:22 Nm  00 07 00.143802 +10 37 05.27031
